[{"OBJECT_NAME":"STARLINK-32285","OBJECT_ID":"2024-138A","EPOCH":"2026-03-09T21:27:37.995264","MEAN_MOTION":15.30218306,"ECCENTRICITY":7.239e-5,"INCLINATION":53.1598,"RA_OF_ASC_NODE":308.3223,"ARG_OF_PERICENTER":85.7035,"MEAN_ANOMALY":274.4049,"EPHEMERIS_TYPE":0,"CLASSIFICATION_TYPE":"U","NORAD_CAT_ID":60355,"ELEMENT_SET_NO":999,"REV_AT_EPOCH":9066,"BSTAR":-0.00019412974,"MEAN_MOTION_DOT":-6.107e-5,"MEAN_MOTION_DDOT":0},{"OBJECT_NAME":"FLOCK 4BE-27","OBJECT_ID":"2024-149AX","EPOCH":"2026-03-09T18:04:53.053248","MEAN_MOTION":15.32593322,"ECCENTRICITY":0.00027324,"INCLINATION":97.3862,"RA_OF_ASC_NODE":150.6783,"ARG_OF_PERICENTER":305.898,"MEAN_ANOMALY":54.2008,"EPHEMERIS_TYPE":0,"CLASSIFICATION_TYPE":"U","NORAD_CAT_ID":60513,"ELEMENT_SET_NO":999,"REV_AT_EPOCH":8690,"BSTAR":0.00036576028,"MEAN_MOTION_DOT":0.00011439,"MEAN_MOTION_DDOT":0}]
